{
  "norad_id": 56515,
  "name": "STARLINK-5348",
  "history": [
    {
      "epoch": "2026-05-03T18:24:00.559296Z",
      "apogee_km": 484.34434216449245,
      "perigee_km": 481.7782540010103,
      "latitude_deg": 2.3855393403963368e-05,
      "longitude_deg": 123.71605058166206,
      "height_km": 482.7759532685263,
      "semi_major_axis_km": 6861.1982980827515,
      "eccentricity": 0.000187,
      "inclination_deg": 43.0061,
      "raan_deg": 261.384,
      "arg_perigee_deg": 272.8192,
      "mean_anomaly_deg": 87.2446,
      "mean_motion_rev_day": 15.27575925
    },
    {
      "epoch": "2026-05-04T10:05:34.514304Z",
      "apogee_km": 484.3454845747874,
      "perigee_km": 481.7831003401061,
      "latitude_deg": -1.7889779678180496e-06,
      "longitude_deg": -116.01273713456823,
      "height_km": 482.7714162293794,
      "semi_major_axis_km": 6861.2012924574465,
      "eccentricity": 0.00018673,
      "inclination_deg": 43.0061,
      "raan_deg": 257.6912,
      "arg_perigee_deg": 273.1606,
      "mean_anomaly_deg": 86.9032,
      "mean_motion_rev_day": 15.27574925
    },
    {
      "epoch": "2026-05-05T09:37:55.451136Z",
      "apogee_km": 484.31931755113055,
      "perigee_km": 481.8067460994753,
      "latitude_deg": 1.2789734569335113e-05,
      "longitude_deg": -115.60548051264773,
      "height_km": 482.7202304875924,
      "semi_major_axis_km": 6861.200031825302,
      "eccentricity": 0.0001831,
      "inclination_deg": 43.0058,
      "raan_deg": 252.1524,
      "arg_perigee_deg": 275.5043,
      "mean_anomaly_deg": 84.56,
      "mean_motion_rev_day": 15.27575346
    },
    {
      "epoch": "2026-05-06T07:36:06.375744Z",
      "apogee_km": 484.3913664734164,
      "perigee_km": 481.71070030877036,
      "latitude_deg": 1.5095034279222768e-05,
      "longitude_deg": -91.2221643424644,
      "height_km": 482.57718171206454,
      "semi_major_axis_km": 6861.188033391093,
      "eccentricity": 0.00019535,
      "inclination_deg": 43.0065,
      "raan_deg": 246.9835,
      "arg_perigee_deg": 280.8248,
      "mean_anomaly_deg": 79.2384,
      "mean_motion_rev_day": 15.27579353
    },
    {
      "epoch": "2026-05-07T16:33:24.304032Z",
      "apogee_km": 484.2657870598132,
      "perigee_km": 481.8657383334221,
      "latitude_deg": -3.086410069574621e-05,
      "longitude_deg": 125.34246752212988,
      "height_km": 482.78777877458407,
      "semi_major_axis_km": 6861.202762696617,
      "eccentricity": 0.0001749,
      "inclination_deg": 43.0046,
      "raan_deg": 239.2263,
      "arg_perigee_deg": 272.6503,
      "mean_anomaly_deg": 87.4148,
      "mean_motion_rev_day": 15.27574434
    },
    {
      "epoch": "2026-05-08T08:14:58.017120Z",
      "apogee_km": 484.2221707637582,
      "perigee_km": 481.9291534920749,
      "latitude_deg": 5.034329894889396e-06,
      "longitude_deg": -114.3833436509616,
      "height_km": 482.69734126497127,
      "semi_major_axis_km": 6861.212662127916,
      "eccentricity": 0.0001671,
      "inclination_deg": 43.0045,
      "raan_deg": 235.5354,
      "arg_perigee_deg": 277.8078,
      "mean_anomaly_deg": 82.2584,
      "mean_motion_rev_day": 15.27571128
    },
    {
      "epoch": "2026-05-09T06:13:09.078240Z",
      "apogee_km": 484.1193458736434,
      "perigee_km": 481.98661358034406,
      "latitude_deg": 3.304245611576075e-05,
      "longitude_deg": -90.00116927406582,
      "height_km": 482.6354948688954,
      "semi_major_axis_km": 6861.189979726993,
      "eccentricity": 0.00015542,
      "inclination_deg": 43.004,
      "raan_deg": 230.3659,
      "arg_perigee_deg": 280.5236,
      "mean_anomaly_deg": 79.5441,
      "mean_motion_rev_day": 15.27578703
    },
    {
      "epoch": "2026-05-10T13:36:17.173152Z",
      "apogee_km": 484.2632900672206,
      "perigee_km": 481.8454062361325,
      "latitude_deg": -3.8452671379865314e-05,
      "longitude_deg": 150.54136361263912,
      "height_km": 482.5430164350039,
      "semi_major_axis_km": 6861.191348151676,
      "eccentricity": 0.0001762,
      "inclination_deg": 43.0051,
      "raan_deg": 222.9812,
      "arg_perigee_deg": 283.8256,
      "mean_anomaly_deg": 76.2399,
      "mean_motion_rev_day": 15.27578246
    },
    {
      "epoch": "2026-05-11T13:08:37.866336Z",
      "apogee_km": 484.0928101485133,
      "perigee_km": 482.0387032672097,
      "latitude_deg": -3.558632863467182e-05,
      "longitude_deg": 150.94822884143844,
      "height_km": 482.67042851603765,
      "semi_major_axis_km": 6861.202756707861,
      "eccentricity": 0.00014969,
      "inclination_deg": 43.0034,
      "raan_deg": 217.441,
      "arg_perigee_deg": 279.669,
      "mean_anomaly_deg": 80.3992,
      "mean_motion_rev_day": 15.27574436
    },
    {
      "epoch": "2026-05-12T12:41:00.587328Z",
      "apogee_km": 484.1547839617888,
      "perigee_km": 482.0799406426295,
      "latitude_deg": 2.728370648093111e-05,
      "longitude_deg": 151.34798644247056,
      "height_km": 482.6657966027987,
      "semi_major_axis_km": 6861.254362302209,
      "eccentricity": 0.0001512,
      "inclination_deg": 43.0036,
      "raan_deg": 211.9021,
      "arg_perigee_deg": 282.739,
      "mean_anomaly_deg": 77.3293,
      "mean_motion_rev_day": 15.27557202
    },
    {
      "epoch": "2026-05-13T05:56:42.040320Z",
      "apogee_km": 484.13416945633253,
      "perigee_km": 481.93996598947433,
      "latitude_deg": -1.7969964258114145e-06,
      "longitude_deg": -112.345570181942,
      "height_km": 482.5435057235262,
      "semi_major_axis_km": 6861.174067722903,
      "eccentricity": 0.0001599,
      "inclination_deg": 43.0029,
      "raan_deg": 207.8402,
      "arg_perigee_deg": 284.2873,
      "mean_anomaly_deg": 75.7801,
      "mean_motion_rev_day": 15.27584017
    }
  ]
}